{
    "links": {
        "self": "http://www.neowsapp.com/rest/v1/neo/3781820?api_key=iIulBulltgU6a56xZRHN4H3l9WmuAYTsLGpBGhQ2"
    },
    "id": "3781820",
    "neo_reference_id": "3781820",
    "name": "(2017 RY17)",
    "designation": "2017 RY17",
    "nasa_jpl_url": "http://ssd.jpl.nasa.gov/sbdb.cgi?sstr=3781820",
    "absolute_magnitude_h": 27.2,
    "estimated_diameter": {
        "kilometers": {
            "estimated_diameter_min": 0.0096506147,
            "estimated_diameter_max": 0.0215794305
        },
        "meters": {
            "estimated_diameter_min": 9.6506146958,
            "estimated_diameter_max": 21.5794304844
        },
        "miles": {
            "estimated_diameter_min": 0.0059966121,
            "estimated_diameter_max": 0.0134088323
        },
        "feet": {
            "estimated_diameter_min": 31.6621227185,
            "estimated_diameter_max": 70.7986587106
        }
    },
    "is_potentially_hazardous_asteroid": false,
    "close_approach_data": [
        {
            "close_approach_date": "2017-09-27",
            "close_approach_date_full": "2017-Sep-27 23:29",
            "epoch_date_close_approach": 1506554940000,
            "relative_velocity": {
                "kilometers_per_second": "5.0200246593",
                "kilometers_per_hour": "18072.08877366",
                "miles_per_hour": "11229.2931605"
            },
            "miss_distance": {
                "astronomical": "0.0424471797",
                "lunar": "16.5119529033",
                "kilometers": "6350007.670627239",
                "miles": "3945711.8014403382"
            },
            "orbiting_body": "Earth"
        }
    ],
    "orbital_data": {
        "orbit_id": "4",
        "orbit_determination_date": "2019-07-27 14:00:49",
        "first_observation_date": "2017-09-14",
        "last_observation_date": "2017-10-01",
        "data_arc_in_days": 17,
        "observations_used": 24,
        "orbit_uncertainty": "8",
        "minimum_orbit_intersection": ".0331556",
        "jupiter_tisserand_invariant": "4.180",
        "epoch_osculation": "2458016.5",
        "eccentricity": ".3786580020299386",
        "semi_major_axis": "1.660104573178358",
        "inclination": ".5874581346889839",
        "ascending_node_longitude": "187.6685239930764",
        "orbital_period": "781.2708052788397",
        "perihelion_distance": "1.031492692337877",
        "perihelion_argument": "191.8852532729029",
        "aphelion_distance": "2.288716454018839",
        "perihelion_time": "2458036.880375520191",
        "mean_anomaly": "350.6089730504519",
        "mean_motion": ".460787728874003",
        "equinox": "J2000",
        "orbit_class": {
            "orbit_class_type": "AMO",
            "orbit_class_description": "Near-Earth asteroid orbits similar to that of 1221 Amor",
            "orbit_class_range": "1.017 AU < q (perihelion) < 1.3 AU"
        }
    },
    "is_sentry_object": false
}